#aV2022 12  7  0  0  0.00000000     288 DD+AD WGS84 FIT  NGA
## 2239 259200.00000000   300.00000000 59920 0.0000000000000
+   31     1  2  3  4  5  6  7  8  9 10 11 12 13 14 15 16 17
+         18 19 20 21 22 23 24 25 26 27 29 30 31 32  0  0  0
+          0  0  0  0  0  0  0  0  0  0  0  0  0  0  0  0  0
+          0  0  0  0  0  0  0  0  0  0  0  0  0  0  0  0  0
+          0  0  0  0  0  0  0  0  0  0  0  0  0  0  0  0  0
++         2  2  2  2  2  2  2  2  2  2  2  2  2  2  2  2  2
++         2  2  2  2  2  2  2  2  2  2  2  2  2  2  0  0  0
++         0  0  0  0  0  0  0  0  0  0  0  0  0  0  0  0  0
++         0  0  0  0  0  0  0  0  0  0  0  0  0  0  0  0  0
++         0  0  0  0  0  0  0  0  0  0  0  0  0  0  0  0  0
%c cc cc ccc ccc cccc cccc cccc cccc ccccc ccccc ccccc ccccc
%c cc cc ccc ccc cccc cccc cccc cccc ccccc ccccc ccccc ccccc
%f  0.0000000  0.000000000  0.00000000000  0.000000000000000
%f  0.0000000  0.000000000  0.00000000000  0.000000000000000
%i    0    0    0    0      0      0      0      0         0
%i    0    0    0    0      0      0      0      0         0
/*      NGA, ST. LOUIS,MO.                                  
/*   EPHEMERIS COMPUTED FROM 2 DAYS OF DATA                 
/*   EPOCHA v8 SMOOTHER                                     
/*   G2139 IERS2010 SATIGS SATAPC                           
*  2022 12  7  8 40  0.00000000
P  1   8973.587825  13492.480746 -21425.962299    241.137617                    
V  1 -26239.976072   2203.173992  -9412.270898     -0.053080                    
P  2 -12059.892736 -12461.604166  20695.542207   -634.280626                    
V  2  24413.869037  -5032.305953  11757.783955      0.019380                    
P  3  11644.327940  23298.769446  -5611.403864   -375.148077                    
V  3  -5711.951227  -4468.190231 -30981.999389     -0.004026                    
P  4   3015.836886  20156.579151  16977.086868    -73.096327                    
V  4 -11425.967185  18411.466719 -19934.998013      0.070230                    
P  5  -1179.023075 -20498.791849  16608.735904   -107.133078                    
V  5  14540.107710  15892.543133  20550.478102     -0.014472                    
P  6  25071.061781  -6220.938347   6425.296380    535.028259                    
V  6   8143.213031   1145.025468 -30919.320257      0.080679                    
P  7  22396.398324   7503.085270  13043.011926    277.817156                    
V  7 -15497.707380   3349.843230  25035.729612     -0.052196                    
P  8  -4798.667108  24708.585958  -7898.120845    -97.446672                    
V  8  -6716.552365   8056.011391  29811.143030     -0.019266                    
P  9  12012.940748  10148.227339  21319.122095   -257.338109                    
V  9 -11521.171389  24740.075451  -5309.687168      0.060019                    
P 10 -18332.545561  -4068.919158 -18748.792537    -15.042127                    
V 10 -12904.182947 -20253.387012  16561.566626     -0.016192                    
P 11  16857.084633 -12073.488612  16586.811367    -52.412234                    
V 11  21098.395365   1074.105190 -20705.916671     -0.070321                    
P 12  -9234.946415 -24167.313218  -6519.146053   -313.027850                    
V 12   6079.489899   5560.438482 -30399.524776     -0.045103                    
P 13  12877.459959 -23001.238820  -2436.269771    437.701678                    
V 13   3841.400939   -962.261158  31855.122578      0.066259                    
P 14  19000.911987   6363.758650 -17484.168765    -72.107802                    
V 14  10588.305587  19592.649813  18513.996023      0.060408                    
P 15   1309.782582 -25160.137525  -8389.097549     -6.168809                    
V 15   6464.564263  -8648.374952  28752.095530      0.032241                    
P 16  -4920.488555  17546.608247  18866.210052   -526.443543                    
V 16 -13687.018156 -20627.607259  15835.828991      0.004318                    
P 17  17149.063764  -3936.112968 -19480.978105    683.960909                    
V 17 -11310.323427  23032.345886 -14210.330093      0.030707                    
P 18 -23681.387374  -5744.761775  10740.814359    -49.731702                    
V 18  13403.235565  -2918.505976  27855.095105     -0.144681                    
P 19  18607.305061 -13873.179495 -12899.579538    247.251383                    
V 19  -6582.167009  14813.950185 -26143.593222      0.050778                    
P 20   9264.373447 -12657.425379  21469.306380    465.189523                    
V 20  19180.020706  19355.691039   2915.601108     -0.024929                    
P 21     43.314969  15038.845075 -21235.598302    154.419134                    
V 21 -28183.695986   4144.748225   3550.630219     -0.008741                    
P 22 -17573.409261  16983.880224  -9757.388825    379.699895                    
V 22   4114.861477 -12693.817959 -28455.933150      0.078043                    
P 23 -19787.621958 -13923.696592 -11120.073199     -0.286437                    
V 23  -6744.392515 -12488.786015  27511.351546      0.005439                    
P 24  -5063.628945 -15270.477737 -21499.636839     26.813457                    
V 24  26184.093287  -4607.926215  -2517.123075     -0.170482                    
P 25 -16875.367894 -20504.507418   2584.473903    399.736837                    
V 25    147.039268  -4553.568190 -31224.225616      0.035997                    
P 26 -13480.935358   8221.172483  21272.203907    237.813662                    
V 26 -16928.050170 -21450.388235  -2092.813424      0.009408                    
P 27 -12664.878900  22911.140343   2677.881036    159.641770                    
V 27  -1052.266836  -4576.840232  31978.106538     -0.100765                    
P 29  -9243.249627 -12798.718631  21302.036131   -572.338971                    
V 29  13835.573106 -23324.307208  -8070.932760     -0.025632                    
P 30  26642.257216   -696.343526   1717.834202   -535.786021                    
V 30  -1812.496405   3523.948061  30917.671449      0.005913                    
P 31 -24766.396876   6848.349414   7443.753121   -202.511579                    
V 31  -9695.850110  -1889.998657 -29418.709296     -0.011783                    
P 32 -17516.803658   7385.748372 -18311.986483   -321.208564                    
V 32   8292.690887 -22209.751334 -16946.377315     -0.130587                    
EOF
